{
  "norad_id": 68297,
  "name": "STARLINK-37115",
  "history": [
    {
      "epoch": "2026-04-11T20:30:04.600224Z",
      "apogee_km": 328.66827602005196,
      "perigee_km": 327.1768483734195,
      "latitude_deg": -5.8441957399611675e-05,
      "longitude_deg": 78.33130368318136,
      "height_km": 331.11733906738164,
      "semi_major_axis_km": 6706.059562196735,
      "eccentricity": 0.0001112,
      "inclination_deg": 97.2834,
      "raan_deg": 225.9182,
      "arg_perigee_deg": 91.5762,
      "mean_anomaly_deg": 268.5633,
      "mean_motion_rev_day": 15.8089
    },
    {
      "epoch": "2026-04-13T07:26:38.876352Z",
      "apogee_km": 343.81691038281224,
      "perigee_km": 315.71107354252854,
      "latitude_deg": 4.662037248576626e-05,
      "longitude_deg": -85.70627946498243,
      "height_km": 342.9374390124876,
      "semi_major_axis_km": 6707.90099196267,
      "eccentricity": 0.00209498,
      "inclination_deg": 97.2842,
      "raan_deg": 227.4585,
      "arg_perigee_deg": 135.5525,
      "mean_anomaly_deg": 224.7429,
      "mean_motion_rev_day": 15.80239074
    },
    {
      "epoch": "2026-04-14T07:45:04.442112Z",
      "apogee_km": 330.158608990806,
      "perigee_km": 325.67842742020275,
      "latitude_deg": 2.6936061204881645e-05,
      "longitude_deg": -90.24025726052031,
      "height_km": 331.75801439791337,
      "semi_major_axis_km": 6706.055518205504,
      "eccentricity": 0.00033404,
      "inclination_deg": 97.2846,
      "raan_deg": 228.5293,
      "arg_perigee_deg": 107.3712,
      "mean_anomaly_deg": 252.7922,
      "mean_motion_rev_day": 15.8089143
    },
    {
      "epoch": "2026-04-15T20:12:45.658368Z",
      "apogee_km": 328.8852604602689,
      "perigee_km": 327.1523897950565,
      "latitude_deg": 1.3935532412337436e-05,
      "longitude_deg": 82.94819419871354,
      "height_km": 331.2552047886929,
      "semi_major_axis_km": 6706.155825127663,
      "eccentricity": 0.0001292,
      "inclination_deg": 97.286,
      "raan_deg": 230.1369,
      "arg_perigee_deg": 94.1384,
      "mean_anomaly_deg": 266.0032,
      "mean_motion_rev_day": 15.80855961
    },
    {
      "epoch": "2026-04-16T20:31:14.008800Z",
      "apogee_km": 329.54590199546146,
      "perigee_km": 326.5804202842055,
      "latitude_deg": -4.88795856375249e-05,
      "longitude_deg": 78.40368835871689,
      "height_km": 330.8246610870242,
      "semi_major_axis_km": 6706.200161139833,
      "eccentricity": 0.0002211,
      "inclination_deg": 97.2861,
      "raan_deg": 231.2088,
      "arg_perigee_deg": 73.9156,
      "mean_anomaly_deg": 286.2355,
      "mean_motion_rev_day": 15.80840284
    }
  ]
}